NORAD_CAT_ID,OBJECT_NAME,OBJECT_TYPE,EPOCH,MEAN_MOTION,ECCENTRICITY,INCLINATION,RA_OF_ASC_NODE,ARG_OF_PERICENTER,MEAN_ANOMALY,BSTAR,MEAN_MOTION_DOT,MEAN_MOTION_DDOT,TLE_LINE0,TLE_LINE1,TLE_LINE2,SEMIMAJOR_AXIS,PERIOD,APOGEE,PERIGEE,DECAYED
52620.0,STARLINK-3975,PAYLOAD,2024-02-20 06:59:52,15.08841675,0.0001508,53.2185,43.8125,95.3503,264.7661,1.9716e-06,-2.57e-06,0.0,0 STARLINK-3975,1 52620U 22052Y   24051.29158156 -.00000257  00000-0  19716-5 0  9999,2 52620  53.2185  43.8125 0001508  95.3503 264.7661 15.08841675 97792,6917.875,95.437,540.783,538.697,0.0
52620.0,STARLINK-3975,PAYLOAD,2024-02-20 16:32:11,15.08840671,0.0001488,53.2187,42.0262,88.6789,271.4373,3.4646e-06,-2.33e-06,0.0,0 STARLINK-3975,1 52620U 22052Y   24051.68902192 -.00000233  00000-0  34646-5 0  9992,2 52620  53.2187  42.0262 0001488  88.6789 271.4373 15.08840671 97852,6917.878,95.438,540.773,538.714,0.0
52620.0,STARLINK-3975,PAYLOAD,2024-02-21 03:39:53,15.08852377,0.0001678,53.2194,39.944,82.9092,277.2091,-0.000146,-2.612e-05,0.0,0 STARLINK-3975,1 52620U 22052Y   24052.15269772 -.00002612  00000-0 -14600-3 0  9995,2 52620  53.2194  39.9440 0001678  82.9092 277.2091 15.08852377 98306,6917.843,95.437,540.868,538.547,0.0
52620.0,STARLINK-3975,PAYLOAD,2024-02-21 05:15:16,15.08841899,0.0001372,53.2172,39.6485,88.9711,271.1438,3.4158e-05,2.56e-06,0.0,0 STARLINK-3975,1 52620U 22052Y   24052.21894087  .00000256  00000-0  34158-4 0  9996,2 52620  53.2172  39.6485 0001372  88.9711 271.1438 15.08841899 98319,6917.875,95.437,540.689,538.79,0.0
52620.0,STARLINK-3975,PAYLOAD,2024-02-22 05:06:04,15.08832559,0.0001262,53.2163,35.188,94.0786,266.0351,5.5663e-05,5.98e-06,0.0,0 STARLINK-3975,1 52620U 22052Y   24053.21254814  .00000598  00000-0  55663-4 0  9998,2 52620  53.2163  35.1880 0001262  94.0786 266.0351 15.08832559 98463,6917.903,95.438,540.641,538.895,0.0
52620.0,STARLINK-3975,PAYLOAD,2024-02-22 08:16:50,15.08838564,0.0001607,53.219,34.5906,100.0086,260.1088,2.1512e-05,5.4e-07,0.0,0 STARLINK-3975,1 52620U 22052Y   24053.34502606  .00000054  00000-0  21512-4 0  9990,2 52620  53.2190  34.5906 0001607 100.0086 260.1088 15.08838564 98104,6917.885,95.438,540.861,538.638,0.0
52620.0,STARLINK-3975,PAYLOAD,2024-02-22 16:13:45,15.08838905,0.0001599,53.2192,33.1042,101.0559,259.0613,6.5296e-05,7.51e-06,0.0,0 STARLINK-3975,1 52620U 22052Y   24053.67622501  .00000751  00000-0  65296-4 0  9994,2 52620  53.2192  33.1042 0001599 101.0559 259.0613 15.08838905 98535,6917.884,95.438,540.855,538.643,0.0
52620.0,STARLINK-3975,PAYLOAD,2024-02-23 03:21:27,15.08847111,0.0001418,53.2189,31.0229,95.5003,264.6151,0.0001217,1.65e-05,0.0,0 STARLINK-3975,1 52620U 22052Y   24054.13989726  .00001650  00000-0  12170-3 0  9992,2 52620  53.2189  31.0229 0001418  95.5003 264.6151 15.08847111 98602,6917.859,95.437,540.705,538.743,0.0
52620.0,STARLINK-3975,PAYLOAD,2024-02-23 04:56:50,15.08851736,0.0001452,53.2185,30.725,101.1497,258.9658,0.00011258,1.505e-05,0.0,0 STARLINK-3975,1 52620U 22052Y   24054.20613470  .00001505  00000-0  11258-3 0  9995,2 52620  53.2185  30.7250 0001452 101.1497 258.9658 15.08851736 98232,6917.845,95.437,540.714,538.705,0.0
52620.0,STARLINK-3975,PAYLOAD,2024-02-23 22:26:05,15.08841819,0.0001838,53.2201,27.457,91.3074,268.8129,3.2544e-05,2.3e-06,0.0,0 STARLINK-3975,1 52620U 22052Y   24054.93478547  .00000230  00000-0  32544-4 0  9995,2 52620  53.2201  27.4570 0001838  91.3074 268.8129 15.08841819 98344,6917.875,95.437,541.011,538.468,0.0
52620.0,STARLINK-3975,PAYLOAD,2024-02-24 03:12:15,15.08838662,0.0001389,53.2202,26.5654,82.7105,277.4045,-1.4594e-06,-3.11e-06,0.0,0 STARLINK-3975,1 52620U 22052Y   24055.13350840 -.00000311  00000-0 -14594-5 0  9991,2 52620  53.2202  26.5654 0001389  82.7105 277.4045 15.08838662 98758,6917.884,95.438,540.71,538.789,0.0
52620.0,STARLINK-3975,PAYLOAD,2024-02-24 07:58:24,15.08840033,0.0001303,53.219,25.6706,91.0636,269.0506,1.8699e-05,1e-07,0.0,0 STARLINK-3975,1 52620U 22052Y   24055.33222636  .00000010  00000-0  18699-4 0  9997,2 52620  53.2190  25.6706 0001303  91.0636 269.0506 15.08840033 98406,6917.88,95.438,540.647,538.844,0.0
52620.0,STARLINK-3975,PAYLOAD,2024-02-25 04:38:24,15.08844974,0.000125,53.2193,21.8057,87.5822,272.5313,3.105e-05,2.06e-06,0.0,0 STARLINK-3975,1 52620U 22052Y   24056.19334226  .00000206  00000-0  31050-4 0  9994,2 52620  53.2193  21.8057 0001250  87.5822 272.5313 15.08844974 98913,6917.865,95.437,540.595,538.865,0.0
52620.0,STARLINK-3975,PAYLOAD,2024-02-25 14:10:42,15.08856152,0.000135,53.2197,20.0216,86.2355,273.8791,-3.9267e-05,-9.13e-06,0.0,0 STARLINK-3975,1 52620U 22052Y   24056.59077503 -.00000913  00000-0 -39267-4 0  9995,2 52620  53.2197  20.0216 0001350  86.2355 273.8791 15.08856152 98592,6917.831,95.437,540.63,538.762,0.0
52620.0,STARLINK-3975,PAYLOAD,2024-02-25 22:07:39,15.08835986,0.0001726,53.2216,18.5413,105.7183,254.4,9.4842e-05,1.222e-05,0.0,0 STARLINK-3975,1 52620U 22052Y   24056.92198622  .00001222  00000-0  94842-4 0  9990,2 52620  53.2216  18.5413 0001726 105.7183 254.4000 15.08835986 98644,6917.893,95.438,540.952,538.564,0.0
52620.0,STARLINK-3975,PAYLOAD,2024-02-26 04:29:11,15.08838885,0.0001746,53.2215,17.3527,107.0856,253.0327,0.00011309,1.512e-05,0.0,0 STARLINK-3975,1 52620U 22052Y   24057.18694420  .00001512  00000-0  11309-3 0  9994,2 52620  53.2215  17.3527 0001746 107.0856 253.0327 15.08838885 99065,6917.884,95.438,540.957,538.541,0.0
52620.0,STARLINK-3975,PAYLOAD,2024-02-26 06:04:34,15.08842521,0.0001548,53.2202,17.0525,93.0476,267.0693,0.00013855,1.918e-05,0.0,0 STARLINK-3975,1 52620U 22052Y   24057.25318160  .00001918  00000-0  13855-3 0  9994,2 52620  53.2202  17.0525 0001548  93.0476 267.0693 15.08842521 98699,6917.873,95.437,540.809,538.667,0.0
52620.0,STARLINK-3975,PAYLOAD,2024-02-27 02:44:36,15.08833863,0.0001594,53.2197,13.1834,79.4687,280.6485,-5.5736e-05,-1.175e-05,0.0,0 STARLINK-3975,1 52620U 22052Y   24058.11431651 -.00001175  00000-0 -55736-4 0  9993,2 52620  53.2197  13.1834 0001594  79.4687 280.6485 15.08833863 99202,6917.899,95.438,540.867,538.661,0.0
52620.0,STARLINK-3975,PAYLOAD,2024-02-27 05:55:22,15.08842801,0.0001763,53.2213,12.589,86.3581,273.7613,-7.3988e-05,-1.466e-05,0.0,0 STARLINK-3975,1 52620U 22052Y   24058.24679214 -.00001466  00000-0 -73988-4 0  9998,2 52620  53.2213  12.5890 0001763  86.3581 273.7613 15.08842801 99224,6917.872,95.437,540.956,538.517,0.0
52620.0,STARLINK-3975,PAYLOAD,2024-02-27 13:52:18,15.08843696,0.0001755,53.2212,11.1025,89.5666,270.5528,-4.9435e-05,-1.075e-05,0.0,0 STARLINK-3975,1 52620U 22052Y   24058.57799038 -.00001075  00000-0 -49435-4 0  9997,2 52620  53.2212  11.1025 0001755  89.5666 270.5528 15.08843696 98893,6917.869,95.437,540.948,538.52,0.0
52620.0,STARLINK-3975,PAYLOAD,2024-02-27 20:13:51,15.08833279,0.0001483,53.2204,9.9133,90.1334,269.9828,0.00010705,1.416e-05,0.0,0 STARLINK-3975,1 52620U 22052Y   24058.84295284  .00001416  00000-0  10705-3 0  9995,2 52620  53.2204   9.9133 0001483  90.1334 269.9828 15.08833279 98933,6917.901,95.438,540.792,538.74,0.0
52620.0,STARLINK-3975,PAYLOAD,2024-02-28 13:43:05,15.08843284,0.000152,53.2191,6.6417,84.69,275.4265,-1.1638e-05,-4.73e-06,0.0,0 STARLINK-3975,1 52620U 22052Y   24059.57158965 -.00000473  00000-0 -11638-4 0  9991,2 52620  53.2191   6.6417 0001520  84.6900 275.4265 15.08843284 99043,6917.87,95.437,540.787,538.684,0.0
52620.0,STARLINK-3975,PAYLOAD,2024-02-29 13:33:52,15.08837348,0.0001536,53.2198,2.1807,89.7424,270.3744,9.5024e-05,1.225e-05,0.0,0 STARLINK-3975,1 52620U 22052Y   24060.56519495  .00001225  00000-0  95024-4 0  9996,2 52620  53.2198   2.1807 0001536  89.7424 270.3744 15.08837348 99194,6917.888,95.438,540.816,538.691,0.0
52620.0,STARLINK-3975,PAYLOAD,2024-03-01 05:27:43,15.08851179,0.0001542,53.2202,359.2034,117.2386,242.8763,4.2647e-05,3.91e-06,0.0,0 STARLINK-3975,1 52620U 22052Y   24061.22758508  .00000391  00000-0  42647-4 0  9996,2 52620  53.2202 359.2034 0001542 117.2386 242.8763 15.08851179 99675,6917.846,95.437,540.778,538.644,0.0
52620.0,STARLINK-3975,PAYLOAD,2024-03-01 13:24:39,15.08848562,0.0001389,53.2186,357.7183,98.2446,261.8703,4.8829e-05,4.89e-06,0.0,0 STARLINK-3975,1 52620U 22052Y   24061.55878592  .00000489  00000-0  48829-4 0  9994,2 52620  53.2186 357.7183 0001389  98.2446 261.8703 15.08848562 99349,6917.854,95.437,540.68,538.758,0.0
52620.0,STARLINK-3975,PAYLOAD,2024-03-01 16:35:25,15.08841268,0.0001786,53.2171,357.1252,90.2636,269.8561,9.1702e-05,1.172e-05,0.0,0 STARLINK-3975,1 52620U 22052Y   24061.69127140  .00001172  00000-0  91702-4 0  9993,2 52620  53.2171 357.1252 0001786  90.2636 269.8561 15.08841268 99748,6917.877,95.437,540.977,538.506,0.0
52620.0,STARLINK-3975,PAYLOAD,2024-03-02 02:07:43,15.08853849,0.0001437,53.2188,355.339,102.0943,258.021,8.3445e-05,1.041e-05,0.0,0 STARLINK-3975,1 52620U 22052Y   24062.08870092  .00001041  00000-0  83445-4 0  9998,2 52620  53.2188 355.3390 0001437 102.0943 258.0210 15.08853849 99801,6917.838,95.437,540.697,538.709,0.0
52620.0,STARLINK-3975,PAYLOAD,2024-03-02 22:47:45,15.08836713,0.000135,53.2194,351.4789,78.7369,281.3775,3.4745e-05,2.65e-06,0.0,0 STARLINK-3975,1 52620U 22052Y   24062.94983320  .00000265  00000-0  34745-4 0  9998,2 52620  53.2194 351.4789 0001350  78.7369 281.3775 15.08836713 99550,6917.89,95.438,540.689,538.822,0.0
52620.0,STARLINK-3975,PAYLOAD,2024-03-03 01:58:31,15.08841779,0.0001508,53.219,350.8801,84.2999,275.8165,2.2663e-05,7.3e-07,0.0,0 STARLINK-3975,1 52620U 22052Y   24063.08230993  .00000073  00000-0  22663-4 0  9998,2 52620  53.2190 350.8801 0001508  84.2999 275.8165 15.08841779 99953,6917.875,95.437,540.783,538.697,0.0
52620.0,STARLINK-3975,PAYLOAD,2024-03-03 19:27:46,15.0883737,0.0001371,53.2189,347.6096,90.8587,269.2563,-1.791e-05,-5.73e-06,0.0,0 STARLINK-3975,1 52620U 22052Y   24063.81095449 -.00000573  00000-0 -17910-4 0  9990,2 52620  53.2189 347.6096 0001371  90.8587 269.2563 15.08837370100061,6917.888,95.438,540.702,538.805,0.0
